SL-4 R/B                
1 39679U 14021B   26024.45718102  .00017320  00000+0  39711-3 0  9990
2 39679  51.6065 192.8254 0099125 301.5887  57.5449 15.37789608649465
ALOS-2                  
1 39766U 14029A   26024.55463752  .00000624  00000+0  90402-4 0  9998
2 39766  97.9196 123.7857 0001430 105.7693 254.3676 14.79462259630344
YAOGAN-29               
1 41038U 15069A   26024.53196225  .00000411  00000+0  57319-4 0  9998
2 41038  98.0187  52.8346 0002694 109.8321 250.3183 14.82939206549334
ASTRO-H (HITOMI)        
1 41337U 16012A   26024.40652453  .00004487  00000+0  26594-3 0  9992
2 41337  30.9998 282.2470 0009924 248.4788 111.4792 15.09668885545531
HXMT (HUIYAN)           
1 42758U 17034A   26024.53597855  .00008766  00000+0  44266-3 0  9993
2 42758  43.0138 262.0408 0033023 313.5945  46.2164 15.16868706475838
CZ-2C R/B               
1 43521U 18054D   26023.95114513  .00249075  00000+0  89981-3 0  9999
2 43521  35.1308 252.2902 0012488 228.0513 131.9160 15.86852624421738
SAOCOM 1A               
1 43641U 18076A   26024.47357414  .00000667  00000+0  90271-4 0  9990
2 43641  97.8857 213.2752 0001486  86.4362 273.7021 14.82163764394813
H-2A R/B                
1 43682U 18084L   26024.29925394  .00032008  00000+0  81205-3 0  9992
2 43682  98.8762 232.2661 0026025 175.8964 184.2495 15.39281414398946
SAOCOM 1B               
1 46265U 20059A   26023.49211909  .00001162  00000+0  15250-3 0  9992
2 46265  97.8852 211.4066 0001416  89.8155 270.3220 14.82165388292052
CSS (TIANHE)            
1 48274U 21035A   26024.47771054  .00029672  00000+0  34512-3 0  9998
2 48274  41.4667 116.8982 0010101 351.8564   8.2110 15.61003850270702
COSMOS 2550             
1 48865U 21056A   26023.39368896 -.00000193  00000+0 -42471-7 0  9999
2 48865  67.1417 177.9415 0008427 270.0851  89.9337 15.33842763256517
CZ-2C R/B               
1 52794U 22058K   26024.49156382  .00043064  00000+0  70113-3 0  9997
2 52794  50.1890 185.1104 0042615  14.3377 345.8791 15.51133042203260
