CCSDS_OMM_VERS = 2.0
CREATION_DATE  = 
ORIGINATOR     = 

OBJECT_NAME    = SL-4 R/B
OBJECT_ID      = 2014-021B
CENTER_NAME    = EARTH
REF_FRAME      = TEME
TIME_SYSTEM    = UTC
MEAN_ELEMENT_THEORY = SGP/SGP4

EPOCH          = 2026-01-24T10:58:20.440128
MEAN_MOTION    = 15.37789608
ECCENTRICITY   = .0099125
INCLINATION    = 51.6065
RA_OF_ASC_NODE = 192.8254
ARG_OF_PERICENTER = 301.5887
MEAN_ANOMALY   = 57.5449

EPHEMERIS_TYPE = 0
CLASSIFICATION_TYPE = U
NORAD_CAT_ID   = 39679
ELEMENT_SET_NO = 999
REV_AT_EPOCH   = 64946
BSTAR          = .39711E-3
MEAN_MOTION_DOT = .1732E-3
MEAN_MOTION_DDOT = 0

CCSDS_OMM_VERS = 2.0
CREATION_DATE  = 
ORIGINATOR     = 

OBJECT_NAME    = ALOS-2
OBJECT_ID      = 2014-029A
CENTER_NAME    = EARTH
REF_FRAME      = TEME
TIME_SYSTEM    = UTC
MEAN_ELEMENT_THEORY = SGP/SGP4

EPOCH          = 2026-01-24T13:18:40.681728
MEAN_MOTION    = 14.79462259
ECCENTRICITY   = .000143
INCLINATION    = 97.9196
RA_OF_ASC_NODE = 123.7857
ARG_OF_PERICENTER = 105.7693
MEAN_ANOMALY   = 254.3676

EPHEMERIS_TYPE = 0
CLASSIFICATION_TYPE = U
NORAD_CAT_ID   = 39766
ELEMENT_SET_NO = 999
REV_AT_EPOCH   = 63034
BSTAR          = .90402E-4
MEAN_MOTION_DOT = .624E-5
MEAN_MOTION_DDOT = 0

CCSDS_OMM_VERS = 2.0
CREATION_DATE  = 
ORIGINATOR     = 

OBJECT_NAME    = YAOGAN-29
OBJECT_ID      = 2015-069A
CENTER_NAME    = EARTH
REF_FRAME      = TEME
TIME_SYSTEM    = UTC
MEAN_ELEMENT_THEORY = SGP/SGP4

EPOCH          = 2026-01-24T12:46:01.538400
MEAN_MOTION    = 14.82939206
ECCENTRICITY   = .0002694
INCLINATION    = 98.0187
RA_OF_ASC_NODE = 52.8346
ARG_OF_PERICENTER = 109.8321
MEAN_ANOMALY   = 250.3183

EPHEMERIS_TYPE = 0
CLASSIFICATION_TYPE = U
NORAD_CAT_ID   = 41038
ELEMENT_SET_NO = 999
REV_AT_EPOCH   = 54933
BSTAR          = .57319E-4
MEAN_MOTION_DOT = .411E-5
MEAN_MOTION_DDOT = 0

CCSDS_OMM_VERS = 2.0
CREATION_DATE  = 
ORIGINATOR     = 

OBJECT_NAME    = ASTRO-H (HITOMI)
OBJECT_ID      = 2016-012A
CENTER_NAME    = EARTH
REF_FRAME      = TEME
TIME_SYSTEM    = UTC
MEAN_ELEMENT_THEORY = SGP/SGP4

EPOCH          = 2026-01-24T09:45:23.719392
MEAN_MOTION    = 15.09668885
ECCENTRICITY   = .0009924
INCLINATION    = 30.9998
RA_OF_ASC_NODE = 282.2470
ARG_OF_PERICENTER = 248.4788
MEAN_ANOMALY   = 111.4792

EPHEMERIS_TYPE = 0
CLASSIFICATION_TYPE = U
NORAD_CAT_ID   = 41337
ELEMENT_SET_NO = 999
REV_AT_EPOCH   = 54553
BSTAR          = .26594E-3
MEAN_MOTION_DOT = .4487E-4
MEAN_MOTION_DDOT = 0

CCSDS_OMM_VERS = 2.0
CREATION_DATE  = 
ORIGINATOR     = 

OBJECT_NAME    = HXMT (HUIYAN)
OBJECT_ID      = 2017-034A
CENTER_NAME    = EARTH
REF_FRAME      = TEME
TIME_SYSTEM    = UTC
MEAN_ELEMENT_THEORY = SGP/SGP4

EPOCH          = 2026-01-24T12:51:48.546720
MEAN_MOTION    = 15.16868706
ECCENTRICITY   = .0033023
INCLINATION    = 43.0138
RA_OF_ASC_NODE = 262.0408
ARG_OF_PERICENTER = 313.5945
MEAN_ANOMALY   = 46.2164

EPHEMERIS_TYPE = 0
CLASSIFICATION_TYPE = U
NORAD_CAT_ID   = 42758
ELEMENT_SET_NO = 999
REV_AT_EPOCH   = 47583
BSTAR          = .44266E-3
MEAN_MOTION_DOT = .8766E-4
MEAN_MOTION_DDOT = 0

CCSDS_OMM_VERS = 2.0
CREATION_DATE  = 
ORIGINATOR     = 

OBJECT_NAME    = CZ-2C R/B
OBJECT_ID      = 2018-054D
CENTER_NAME    = EARTH
REF_FRAME      = TEME
TIME_SYSTEM    = UTC
MEAN_ELEMENT_THEORY = SGP/SGP4

EPOCH          = 2026-01-23T22:49:38.939232
MEAN_MOTION    = 15.86852624
ECCENTRICITY   = .0012488
INCLINATION    = 35.1308
RA_OF_ASC_NODE = 252.2902
ARG_OF_PERICENTER = 228.0513
MEAN_ANOMALY   = 131.9160

EPHEMERIS_TYPE = 0
CLASSIFICATION_TYPE = U
NORAD_CAT_ID   = 43521
ELEMENT_SET_NO = 999
REV_AT_EPOCH   = 42173
BSTAR          = .89981E-3
MEAN_MOTION_DOT = .249075E-2
MEAN_MOTION_DDOT = 0

CCSDS_OMM_VERS = 2.0
CREATION_DATE  = 
ORIGINATOR     = 

OBJECT_NAME    = SAOCOM 1A
OBJECT_ID      = 2018-076A
CENTER_NAME    = EARTH
REF_FRAME      = TEME
TIME_SYSTEM    = UTC
MEAN_ELEMENT_THEORY = SGP/SGP4

EPOCH          = 2026-01-24T11:21:56.805696
MEAN_MOTION    = 14.82163764
ECCENTRICITY   = .0001486
INCLINATION    = 97.8857
RA_OF_ASC_NODE = 213.2752
ARG_OF_PERICENTER = 86.4362
MEAN_ANOMALY   = 273.7021

EPHEMERIS_TYPE = 0
CLASSIFICATION_TYPE = U
NORAD_CAT_ID   = 43641
ELEMENT_SET_NO = 999
REV_AT_EPOCH   = 39481
BSTAR          = .90271E-4
MEAN_MOTION_DOT = .667E-5
MEAN_MOTION_DDOT = 0

CCSDS_OMM_VERS = 2.0
CREATION_DATE  = 
ORIGINATOR     = 

OBJECT_NAME    = H-2A R/B
OBJECT_ID      = 2018-084L
CENTER_NAME    = EARTH
REF_FRAME      = TEME
TIME_SYSTEM    = UTC
MEAN_ELEMENT_THEORY = SGP/SGP4

EPOCH          = 2026-01-24T07:10:55.540416
MEAN_MOTION    = 15.39281414
ECCENTRICITY   = .0026025
INCLINATION    = 98.8762
RA_OF_ASC_NODE = 232.2661
ARG_OF_PERICENTER = 175.8964
MEAN_ANOMALY   = 184.2495

EPHEMERIS_TYPE = 0
CLASSIFICATION_TYPE = U
NORAD_CAT_ID   = 43682
ELEMENT_SET_NO = 999
REV_AT_EPOCH   = 39894
BSTAR          = .81205E-3
MEAN_MOTION_DOT = .32008E-3
MEAN_MOTION_DDOT = 0

CCSDS_OMM_VERS = 2.0
CREATION_DATE  = 
ORIGINATOR     = 

OBJECT_NAME    = SAOCOM 1B
OBJECT_ID      = 2020-059A
CENTER_NAME    = EARTH
REF_FRAME      = TEME
TIME_SYSTEM    = UTC
MEAN_ELEMENT_THEORY = SGP/SGP4

EPOCH          = 2026-01-23T11:48:39.089376
MEAN_MOTION    = 14.82165388
ECCENTRICITY   = .00014161
INCLINATION    = 97.8852
RA_OF_ASC_NODE = 211.4066
ARG_OF_PERICENTER = 89.8155
MEAN_ANOMALY   = 270.3220

EPHEMERIS_TYPE = 0
CLASSIFICATION_TYPE = U
NORAD_CAT_ID   = 46265
ELEMENT_SET_NO = 999
REV_AT_EPOCH   = 29205
BSTAR          = .15249695E-3
MEAN_MOTION_DOT = .1162E-4
MEAN_MOTION_DDOT = 0

CCSDS_OMM_VERS = 2.0
CREATION_DATE  = 
ORIGINATOR     = 

OBJECT_NAME    = CSS (TIANHE)
OBJECT_ID      = 2021-035A
CENTER_NAME    = EARTH
REF_FRAME      = TEME
TIME_SYSTEM    = UTC
MEAN_ELEMENT_THEORY = SGP/SGP4

EPOCH          = 2026-01-24T11:27:54.190656
MEAN_MOTION    = 15.61003850
ECCENTRICITY   = .0010101
INCLINATION    = 41.4667
RA_OF_ASC_NODE = 116.8982
ARG_OF_PERICENTER = 351.8564
MEAN_ANOMALY   = 8.2110

EPHEMERIS_TYPE = 0
CLASSIFICATION_TYPE = U
NORAD_CAT_ID   = 48274
ELEMENT_SET_NO = 999
REV_AT_EPOCH   = 27070
BSTAR          = .34512E-3
MEAN_MOTION_DOT = .29672E-3
MEAN_MOTION_DDOT = 0

CCSDS_OMM_VERS = 2.0
CREATION_DATE  = 
ORIGINATOR     = 

OBJECT_NAME    = COSMOS 2550
OBJECT_ID      = 2021-056A
CENTER_NAME    = EARTH
REF_FRAME      = TEME
TIME_SYSTEM    = UTC
MEAN_ELEMENT_THEORY = SGP/SGP4

EPOCH          = 2026-01-23T09:26:54.726144
MEAN_MOTION    = 15.33842763
ECCENTRICITY   = .00084274
INCLINATION    = 67.1417
RA_OF_ASC_NODE = 177.9415
ARG_OF_PERICENTER = 270.0851
MEAN_ANOMALY   = 89.9337

EPHEMERIS_TYPE = 0
CLASSIFICATION_TYPE = U
NORAD_CAT_ID   = 48865
ELEMENT_SET_NO = 999
REV_AT_EPOCH   = 25651
BSTAR          = -.42471E-7
MEAN_MOTION_DOT = -.193E-5
MEAN_MOTION_DDOT = 0

CCSDS_OMM_VERS = 2.0
CREATION_DATE  = 
ORIGINATOR     = 

OBJECT_NAME    = CZ-2C R/B
OBJECT_ID      = 2022-058K
CENTER_NAME    = EARTH
REF_FRAME      = TEME
TIME_SYSTEM    = UTC
MEAN_ELEMENT_THEORY = SGP/SGP4

EPOCH          = 2026-01-24T11:47:51.114048
MEAN_MOTION    = 15.51133042
ECCENTRICITY   = .0042615
INCLINATION    = 50.1890
RA_OF_ASC_NODE = 185.1104
ARG_OF_PERICENTER = 14.3377
MEAN_ANOMALY   = 345.8791

EPHEMERIS_TYPE = 0
CLASSIFICATION_TYPE = U
NORAD_CAT_ID   = 52794
ELEMENT_SET_NO = 999
REV_AT_EPOCH   = 20326
BSTAR          = .70113E-3
MEAN_MOTION_DOT = .43064E-3
MEAN_MOTION_DDOT = 0

